TIANMU-1 08             
1 57400U 23101B   26066.00237819  .00000346  00000+0  14775-4 0  9993
2 57400  97.2717 118.7901 0006380 134.2174 225.9592 15.29204229146020
STARLINK-35992          
1 66852U 25281E   26068.14367243  .00025309  00000+0  92608-3 0  9993
2 66852  43.0051 346.4192 0002046 256.9888 103.0736 15.27579202 16107
